ONEWEB-0228             
1 48780U 21045P   23263.91976157  .00000108  00000+0  25169-3 0  9994
2 48780  87.8936  98.3536 0001869  87.2058 272.9286 13.15551109112818
